[
  {
    "COMMENT": "GENERATED VIA SPACETRACK.ORG API",
    "ORIGINATOR": "18 SPCS",
    "NORAD_CAT_ID": "20436",
    "OBJECT_NAME": "SPOT 2",
    "OBJECT_TYPE": "PAYLOAD",
    "CLASSIFICATION_TYPE": "U",
    "INTLDES": "90005A",
    "EPOCH": "2023-04-27 13:20:22",
    "EPOCH_MICROSECONDS": "881696",
    "MEAN_MOTION": "14.67966901",
    "ECCENTRICITY": "0.0142848",
    "INCLINATION": "98.6647",
    "RA_OF_ASC_NODE": "185.8885",
    "ARG_OF_PERICENTER": "81.8286",
    "MEAN_ANOMALY": "279.9092",
    "EPHEMERIS_TYPE": "0",
    "ELEMENT_SET_NO": "999",
    "REV_AT_EPOCH": "74676",
    "BSTAR": "0.00025427",
    "MEAN_MOTION_DOT": "0.00001637",
    "MEAN_MOTION_DDOT": "0",
    "FILE": "3894977",
    "TLE_LINE0": "0 SPOT 2",
    "TLE_LINE1": "1 20436U 90005A   23117.55582039  .00001637  00000-0  25427-3 0  9990",
    "TLE_LINE2": "2 20436  98.6647 185.8885 0142848  81.8286 279.9092 14.67966901746767",
    "OBJECT_ID": "1990-005A",
    "OBJECT_NUMBER": "20436",
    "SEMIMAJOR_AXIS": "7045.703",
    "PERIOD": "98.095",
    "APOGEE": "768.214",
    "PERIGEE": "566.922",
    "DECAYED": "0"
  },
  {
    "COMMENT": "GENERATED VIA SPACETRACK.ORG API",
    "ORIGINATOR": "18 SPCS",
    "NORAD_CAT_ID": "20436",
    "OBJECT_NAME": "SPOT 2",
    "OBJECT_TYPE": "PAYLOAD",
    "CLASSIFICATION_TYPE": "U",
    "INTLDES": "90005A",
    "EPOCH": "2023-04-28 10:36:21",
    "EPOCH_MICROSECONDS": "730752",
    "MEAN_MOTION": "14.6796958",
    "ECCENTRICITY": "0.0142855",
    "INCLINATION": "98.6648",
    "RA_OF_ASC_NODE": "186.8265",
    "ARG_OF_PERICENTER": "79.0838",
    "MEAN_ANOMALY": "282.6401",
    "EPHEMERIS_TYPE": "0",
    "ELEMENT_SET_NO": "999",
    "REV_AT_EPOCH": "74687",
    "BSTAR": "0.00023542",
    "MEAN_MOTION_DOT": "0.00001511",
    "MEAN_MOTION_DDOT": "0",
    "FILE": "3895770",
    "TLE_LINE0": "0 SPOT 2",
    "TLE_LINE1": "1 20436U 90005A   23118.44191818  .00001511  00000-0  23542-3 0  9997",
    "TLE_LINE2": "2 20436  98.6648 186.8265 0142855  79.0838 282.6401 14.67969580746874",
    "OBJECT_ID": "1990-005A",
    "OBJECT_NUMBER": "20436",
    "SEMIMAJOR_AXIS": "7045.694",
    "PERIOD": "98.095",
    "APOGEE": "768.211",
    "PERIGEE": "566.908",
    "DECAYED": "0"
  },
  {
    "COMMENT": "GENERATED VIA SPACETRACK.ORG API",
    "ORIGINATOR": "18 SPCS",
    "NORAD_CAT_ID": "20436",
    "OBJECT_NAME": "SPOT 2",
    "OBJECT_TYPE": "PAYLOAD",
    "CLASSIFICATION_TYPE": "U",
    "INTLDES": "90005A",
    "EPOCH": "2023-04-28 15:30:49",
    "EPOCH_MICROSECONDS": "119840",
    "MEAN_MOTION": "14.67970478",
    "ECCENTRICITY": "0.0142852",
    "INCLINATION": "98.6648",
    "RA_OF_ASC_NODE": "187.0429",
    "ARG_OF_PERICENTER": "78.4519",
    "MEAN_ANOMALY": "283.2682",
    "EPHEMERIS_TYPE": "0",
    "ELEMENT_SET_NO": "999",
    "REV_AT_EPOCH": "74692",
    "BSTAR": "0.00024211",
    "MEAN_MOTION_DOT": "0.00001555",
    "MEAN_MOTION_DDOT": "0",
    "FILE": "3895950",
    "TLE_LINE0": "0 SPOT 2",
    "TLE_LINE1": "1 20436U 90005A   23118.64640185  .00001555  00000-0  24211-3 0  9997",
    "TLE_LINE2": "2 20436  98.6648 187.0429 0142852  78.4519 283.2682 14.67970478746927",
    "OBJECT_ID": "1990-005A",
    "OBJECT_NUMBER": "20436",
    "SEMIMAJOR_AXIS": "7045.692",
    "PERIOD": "98.095",
    "APOGEE": "768.206",
    "PERIGEE": "566.907",
    "DECAYED": "0"
  },
  {
    "COMMENT": "GENERATED VIA SPACETRACK.ORG API",
    "ORIGINATOR": "18 SPCS",
    "NORAD_CAT_ID": "20436",
    "OBJECT_NAME": "SPOT 2",
    "OBJECT_TYPE": "PAYLOAD",
    "CLASSIFICATION_TYPE": "U",
    "INTLDES": "90005A",
    "EPOCH": "2023-04-29 12:46:47",
    "EPOCH_MICROSECONDS": "694144",
    "MEAN_MOTION": "14.67973351",
    "ECCENTRICITY": "0.0142832",
    "INCLINATION": "98.6649",
    "RA_OF_ASC_NODE": "187.9809",
    "ARG_OF_PERICENTER": "75.7107",
    "MEAN_ANOMALY": "285.9908",
    "EPHEMERIS_TYPE": "0",
    "ELEMENT_SET_NO": "999",
    "REV_AT_EPOCH": "74703",
    "BSTAR": "0.00023572",
    "MEAN_MOTION_DOT": "0.00001513",
    "MEAN_MOTION_DDOT": "0",
    "FILE": "3896517",
    "TLE_LINE0": "0 SPOT 2",
    "TLE_LINE1": "1 20436U 90005A   23119.53249646  .00001513  00000-0  23572-3 0  9996",
    "TLE_LINE2": "2 20436  98.6649 187.9809 0142832  75.7107 285.9908 14.67973351747036",
    "OBJECT_ID": "1990-005A",
    "OBJECT_NUMBER": "20436",
    "SEMIMAJOR_AXIS": "7045.682",
    "PERIOD": "98.094",
    "APOGEE": "768.182",
    "PERIGEE": "566.912",
    "DECAYED": "0"
  },
  {
    "COMMENT": "GENERATED VIA SPACETRACK.ORG API",
    "ORIGINATOR": "18 SPCS",
    "NORAD_CAT_ID": "20436",
    "OBJECT_NAME": "SPOT 2",
    "OBJECT_TYPE": "PAYLOAD",
    "CLASSIFICATION_TYPE": "U",
    "INTLDES": "90005A",
    "EPOCH": "2023-04-29 17:41:15",
    "EPOCH_MICROSECONDS": "20160",
    "MEAN_MOTION": "14.67974233",
    "ECCENTRICITY": "0.0142829",
    "INCLINATION": "98.6649",
    "RA_OF_ASC_NODE": "188.1973",
    "ARG_OF_PERICENTER": "75.0768",
    "MEAN_ANOMALY": "286.6199",
    "EPHEMERIS_TYPE": "0",
    "ELEMENT_SET_NO": "999",
    "REV_AT_EPOCH": "74708",
    "BSTAR": "0.00024157",
    "MEAN_MOTION_DOT": "0.00001552",
    "MEAN_MOTION_DDOT": "0",
    "FILE": "3896743",
    "TLE_LINE0": "0 SPOT 2",
    "TLE_LINE1": "1 20436U 90005A   23119.73697940  .00001552  00000-0  24157-3 0  9995",
    "TLE_LINE2": "2 20436  98.6649 188.1973 0142829  75.0768 286.6199 14.67974233747088",
    "OBJECT_ID": "1990-005A",
    "OBJECT_NUMBER": "20436",
    "SEMIMAJOR_AXIS": "7045.680",
    "PERIOD": "98.094",
    "APOGEE": "768.177",
    "PERIGEE": "566.912",
    "DECAYED": "0"
  },
  {
    "COMMENT": "GENERATED VIA SPACETRACK.ORG API",
    "ORIGINATOR": "18 SPCS",
    "NORAD_CAT_ID": "20436",
    "OBJECT_NAME": "SPOT 2",
    "OBJECT_TYPE": "PAYLOAD",
    "CLASSIFICATION_TYPE": "U",
    "INTLDES": "90005A",
    "EPOCH": "2023-04-30 13:19:04",
    "EPOCH_MICROSECONDS": "202400",
    "MEAN_MOTION": "14.67976758",
    "ECCENTRICITY": "0.0142797",
    "INCLINATION": "98.6651",
    "RA_OF_ASC_NODE": "189.063",
    "ARG_OF_PERICENTER": "72.533",
    "MEAN_ANOMALY": "289.1424",
    "EPHEMERIS_TYPE": "0",
    "ELEMENT_SET_NO": "999",
    "REV_AT_EPOCH": "74718",
    "BSTAR": "0.00023876",
    "MEAN_MOTION_DOT": "0.00001533",
    "MEAN_MOTION_DDOT": "0",
    "FILE": "3897442",
    "TLE_LINE0": "0 SPOT 2",
    "TLE_LINE1": "1 20436U 90005A   23120.55490975  .00001533  00000-0  23876-3 0  9992",
    "TLE_LINE2": "2 20436  98.6651 189.0630 0142797  72.5330 289.1424 14.67976758747186",
    "OBJECT_ID": "1990-005A",
    "OBJECT_NUMBER": "20436",
    "SEMIMAJOR_AXIS": "7045.671",
    "PERIOD": "98.094",
    "APOGEE": "768.147",
    "PERIGEE": "566.926",
    "DECAYED": "0"
  },
  {
    "COMMENT": "GENERATED VIA SPACETRACK.ORG API",
    "ORIGINATOR": "18 SPCS",
    "NORAD_CAT_ID": "20436",
    "OBJECT_NAME": "SPOT 2",
    "OBJECT_TYPE": "PAYLOAD",
    "CLASSIFICATION_TYPE": "U",
    "INTLDES": "90005A",
    "EPOCH": "2023-04-30 21:29:49",
    "EPOCH_MICROSECONDS": "636896",
    "MEAN_MOTION": "14.67977991",
    "ECCENTRICITY": "0.0142766",
    "INCLINATION": "98.665",
    "RA_OF_ASC_NODE": "189.4238",
    "ARG_OF_PERICENTER": "71.4764",
    "MEAN_ANOMALY": "290.1891",
    "EPHEMERIS_TYPE": "0",
    "ELEMENT_SET_NO": "999",
    "REV_AT_EPOCH": "74725",
    "BSTAR": "0.00023816",
    "MEAN_MOTION_DOT": "0.00001529",
    "MEAN_MOTION_DDOT": "0",
    "FILE": "3897657",
    "TLE_LINE0": "0 SPOT 2",
    "TLE_LINE1": "1 20436U 90005A   23120.89571339  .00001529  00000-0  23816-3 0  9992",
    "TLE_LINE2": "2 20436  98.6650 189.4238 0142766  71.4764 290.1891 14.67977991747256",
    "OBJECT_ID": "1990-005A",
    "OBJECT_NUMBER": "20436",
    "SEMIMAJOR_AXIS": "7045.668",
    "PERIOD": "98.094",
    "APOGEE": "768.121",
    "PERIGEE": "566.944",
    "DECAYED": "0"
  },
  {
    "COMMENT": "GENERATED VIA SPACETRACK.ORG API",
    "ORIGINATOR": "18 SPCS",
    "NORAD_CAT_ID": "20436",
    "OBJECT_NAME": "SPOT 2",
    "OBJECT_TYPE": "PAYLOAD",
    "CLASSIFICATION_TYPE": "U",
    "INTLDES": "90005A",
    "EPOCH": "2023-05-01 04:02:25",
    "EPOCH_MICROSECONDS": "954944",
    "MEAN_MOTION": "14.67979337",
    "ECCENTRICITY": "0.0142735",
    "INCLINATION": "98.665",
    "RA_OF_ASC_NODE": "189.7125",
    "ARG_OF_PERICENTER": "70.6337",
    "MEAN_ANOMALY": "291.0234",
    "EPHEMERIS_TYPE": "0",
    "ELEMENT_SET_NO": "999",
    "REV_AT_EPOCH": "74727",
    "BSTAR": "0.00024916",
    "MEAN_MOTION_DOT": "0.00001602",
    "MEAN_MOTION_DDOT": "0",
    "FILE": "3898258",
    "TLE_LINE0": "0 SPOT 2",
    "TLE_LINE1": "1 20436U 90005A   23121.16835596  .00001602  00000-0  24916-3 0  9995",
    "TLE_LINE2": "2 20436  98.6650 189.7125 0142735  70.6337 291.0234 14.67979337747276",
    "OBJECT_ID": "1990-005A",
    "OBJECT_NUMBER": "20436",
    "SEMIMAJOR_AXIS": "7045.663",
    "PERIOD": "98.094",
    "APOGEE": "768.094",
    "PERIGEE": "566.962",
    "DECAYED": "0"
  },
  {
    "COMMENT": "GENERATED VIA SPACETRACK.ORG API",
    "ORIGINATOR": "18 SPCS",
    "NORAD_CAT_ID": "20436",
    "OBJECT_NAME": "SPOT 2",
    "OBJECT_TYPE": "PAYLOAD",
    "CLASSIFICATION_TYPE": "U",
    "INTLDES": "90005A",
    "EPOCH": "2023-05-01 18:45:47",
    "EPOCH_MICROSECONDS": "648736",
    "MEAN_MOTION": "14.67981333",
    "ECCENTRICITY": "0.0142732",
    "INCLINATION": "98.665",
    "RA_OF_ASC_NODE": "190.3618",
    "ARG_OF_PERICENTER": "68.7354",
    "MEAN_ANOMALY": "292.9024",
    "EPHEMERIS_TYPE": "0",
    "ELEMENT_SET_NO": "999",
    "REV_AT_EPOCH": "74736",
    "BSTAR": "0.00024923",
    "MEAN_MOTION_DOT": "0.00001603",
    "MEAN_MOTION_DDOT": "0",
    "FILE": "3898518",
    "TLE_LINE0": "0 SPOT 2",
    "TLE_LINE1": "1 20436U 90005A   23121.78180149  .00001603  00000-0  24923-3 0  9999",
    "TLE_LINE2": "2 20436  98.6650 190.3618 0142732  68.7354 292.9024 14.67981333747361",
    "OBJECT_ID": "1990-005A",
    "OBJECT_NUMBER": "20436",
    "SEMIMAJOR_AXIS": "7045.657",
    "PERIOD": "98.094",
    "APOGEE": "768.086",
    "PERIGEE": "566.958",
    "DECAYED": "0"
  }
]